2025-274A               
1 66650U 25274A   25334.54345538  .00002137  00000+0  21834-3 0  9990
2 66650  97.7373 261.9570 0010586 297.9658  62.0489 14.91591279   587
2025-274B               
1 66651U 25274B   25334.54331575  .00003596  00000+0  36307-3 0  9998
2 66651  97.7366 261.9567 0010922 297.5421  62.4687 14.91649350   582
2025-274C               
1 66652U 25274C   25334.54292483  .00002899  00000+0  29271-3 0  9990
2 66652  97.7373 261.9574 0010699 304.2005  55.8199 14.91801026   588
2025-274D               
1 66653U 25274D   25334.54289651  .00001347  00000+0  13891-3 0  9992
2 66653  97.7375 261.9573 0011508 299.8778  60.1297 14.91808854   580
2025-274E               
1 66654U 25274E   25334.54248451  .00003450  00000+0  34566-3 0  9995
2 66654  97.7371 261.9581 0012055 301.4003  58.6037 14.91970582   587
2025-274F               
1 66655U 25274F   25334.60933413  .00003326  00000+0  33228-3 0  9998
2 66655  97.7344 262.0248 0008180 326.6877  33.3826 14.92138335   592
2025-274G               
1 66656U 25274G   25334.54202373  .00003686  00000+0  36723-3 0  9998
2 66656  97.7369 261.9586 0012734 302.8317  57.1676 14.92149655   581
2025-274H               
1 66657U 25274H   25334.54157365  .00003676  00000+0  36474-3 0  9991
2 66657  97.7367 261.9592 0011420 321.6088  38.4318 14.92330132   589
2025-274J               
1 66658U 25274J   25334.54111722  .00003274  00000+0  32396-3 0  9992
2 66658  97.7368 261.9598 0012021 324.2324  35.8088 14.92505907   586
2025-274K               
1 66659U 25274K   25334.54063689  .00003484  00000+0  34275-3 0  9992
2 66659  97.7370 261.9604 0012769 325.1446  34.8936 14.92692356   588
2025-274L               
1 66660U 25274L   25334.54025238  .00003860  00000+0  37767-3 0  9999
2 66660  97.7373 261.9612 0013403 325.6928  34.3425 14.92842488   589
2025-274M               
1 66661U 25274M   25334.53984603  .00003018  00000+0  29535-3 0  9998
2 66661  97.7372 261.9615 0014068 326.4207  33.6120 14.92996664   589
