CCSDS_OMM_VERS = 2.0
CREATION_DATE  = 
ORIGINATOR     = 

OBJECT_NAME    = 2025-274A
OBJECT_ID      = 2025-274A
CENTER_NAME    = EARTH
REF_FRAME      = TEME
TIME_SYSTEM    = UTC
MEAN_ELEMENT_THEORY = SGP/SGP4

EPOCH          = 2025-11-30T13:02:34.544832
MEAN_MOTION    = 14.91591279
ECCENTRICITY   = .00105863
INCLINATION    = 97.7373
RA_OF_ASC_NODE = 261.9570
ARG_OF_PERICENTER = 297.9658
MEAN_ANOMALY   = 62.0489

EPHEMERIS_TYPE = 0
CLASSIFICATION_TYPE = U
NORAD_CAT_ID   = 66650
ELEMENT_SET_NO = 999
REV_AT_EPOCH   = 58
BSTAR          = .21834061E-3
MEAN_MOTION_DOT = .2137E-4
MEAN_MOTION_DDOT = 0

CCSDS_OMM_VERS = 2.0
CREATION_DATE  = 
ORIGINATOR     = 

OBJECT_NAME    = 2025-274B
OBJECT_ID      = 2025-274B
CENTER_NAME    = EARTH
REF_FRAME      = TEME
TIME_SYSTEM    = UTC
MEAN_ELEMENT_THEORY = SGP/SGP4

EPOCH          = 2025-11-30T13:02:22.480800
MEAN_MOTION    = 14.91649350
ECCENTRICITY   = .00109229
INCLINATION    = 97.7366
RA_OF_ASC_NODE = 261.9567
ARG_OF_PERICENTER = 297.5421
MEAN_ANOMALY   = 62.4687

EPHEMERIS_TYPE = 0
CLASSIFICATION_TYPE = U
NORAD_CAT_ID   = 66651
ELEMENT_SET_NO = 999
REV_AT_EPOCH   = 58
BSTAR          = .36306564E-3
MEAN_MOTION_DOT = .3596E-4
MEAN_MOTION_DDOT = 0

CCSDS_OMM_VERS = 2.0
CREATION_DATE  = 
ORIGINATOR     = 

OBJECT_NAME    = 2025-274C
OBJECT_ID      = 2025-274C
CENTER_NAME    = EARTH
REF_FRAME      = TEME
TIME_SYSTEM    = UTC
MEAN_ELEMENT_THEORY = SGP/SGP4

EPOCH          = 2025-11-30T13:01:48.705312
MEAN_MOTION    = 14.91801026
ECCENTRICITY   = .00106991
INCLINATION    = 97.7373
RA_OF_ASC_NODE = 261.9574
ARG_OF_PERICENTER = 304.2005
MEAN_ANOMALY   = 55.8199

EPHEMERIS_TYPE = 0
CLASSIFICATION_TYPE = U
NORAD_CAT_ID   = 66652
ELEMENT_SET_NO = 999
REV_AT_EPOCH   = 58
BSTAR          = .2927137E-3
MEAN_MOTION_DOT = .2899E-4
MEAN_MOTION_DDOT = 0

CCSDS_OMM_VERS = 2.0
CREATION_DATE  = 
ORIGINATOR     = 

OBJECT_NAME    = 2025-274D
OBJECT_ID      = 2025-274D
CENTER_NAME    = EARTH
REF_FRAME      = TEME
TIME_SYSTEM    = UTC
MEAN_ELEMENT_THEORY = SGP/SGP4

EPOCH          = 2025-11-30T13:01:46.258464
MEAN_MOTION    = 14.91808854
ECCENTRICITY   = .00115081
INCLINATION    = 97.7375
RA_OF_ASC_NODE = 261.9573
ARG_OF_PERICENTER = 299.8778
MEAN_ANOMALY   = 60.1297

EPHEMERIS_TYPE = 0
CLASSIFICATION_TYPE = U
NORAD_CAT_ID   = 66653
ELEMENT_SET_NO = 999
REV_AT_EPOCH   = 58
BSTAR          = .1389127E-3
MEAN_MOTION_DOT = .1347E-4
MEAN_MOTION_DDOT = 0

CCSDS_OMM_VERS = 2.0
CREATION_DATE  = 
ORIGINATOR     = 

OBJECT_NAME    = 2025-274E
OBJECT_ID      = 2025-274E
CENTER_NAME    = EARTH
REF_FRAME      = TEME
TIME_SYSTEM    = UTC
MEAN_ELEMENT_THEORY = SGP/SGP4

EPOCH          = 2025-11-30T13:01:10.661664
MEAN_MOTION    = 14.91970582
ECCENTRICITY   = .00120557
INCLINATION    = 97.7371
RA_OF_ASC_NODE = 261.9581
ARG_OF_PERICENTER = 301.4003
MEAN_ANOMALY   = 58.6037

EPHEMERIS_TYPE = 0
CLASSIFICATION_TYPE = U
NORAD_CAT_ID   = 66654
ELEMENT_SET_NO = 999
REV_AT_EPOCH   = 58
BSTAR          = .34565997E-3
MEAN_MOTION_DOT = .345E-4
MEAN_MOTION_DDOT = 0

CCSDS_OMM_VERS = 2.0
CREATION_DATE  = 
ORIGINATOR     = 

OBJECT_NAME    = 2025-274F
OBJECT_ID      = 2025-274F
CENTER_NAME    = EARTH
REF_FRAME      = TEME
TIME_SYSTEM    = UTC
MEAN_ELEMENT_THEORY = SGP/SGP4

EPOCH          = 2025-11-30T14:37:26.468832
MEAN_MOTION    = 14.92138335
ECCENTRICITY   = .00081808
INCLINATION    = 97.7344
RA_OF_ASC_NODE = 262.0248
ARG_OF_PERICENTER = 326.6877
MEAN_ANOMALY   = 33.3826

EPHEMERIS_TYPE = 0
CLASSIFICATION_TYPE = U
NORAD_CAT_ID   = 66655
ELEMENT_SET_NO = 999
REV_AT_EPOCH   = 59
BSTAR          = .33228291E-3
MEAN_MOTION_DOT = .3326E-4
MEAN_MOTION_DDOT = 0

CCSDS_OMM_VERS = 2.0
CREATION_DATE  = 
ORIGINATOR     = 

OBJECT_NAME    = 2025-274G
OBJECT_ID      = 2025-274G
CENTER_NAME    = EARTH
REF_FRAME      = TEME
TIME_SYSTEM    = UTC
MEAN_ELEMENT_THEORY = SGP/SGP4

EPOCH          = 2025-11-30T13:00:30.850272
MEAN_MOTION    = 14.92149655
ECCENTRICITY   = .00127343
INCLINATION    = 97.7369
RA_OF_ASC_NODE = 261.9586
ARG_OF_PERICENTER = 302.8317
MEAN_ANOMALY   = 57.1676

EPHEMERIS_TYPE = 0
CLASSIFICATION_TYPE = U
NORAD_CAT_ID   = 66656
ELEMENT_SET_NO = 999
REV_AT_EPOCH   = 58
BSTAR          = .36723224E-3
MEAN_MOTION_DOT = .3686E-4
MEAN_MOTION_DDOT = 0

CCSDS_OMM_VERS = 2.0
CREATION_DATE  = 
ORIGINATOR     = 

OBJECT_NAME    = 2025-274H
OBJECT_ID      = 2025-274H
CENTER_NAME    = EARTH
REF_FRAME      = TEME
TIME_SYSTEM    = UTC
MEAN_ELEMENT_THEORY = SGP/SGP4

EPOCH          = 2025-11-30T12:59:51.963360
MEAN_MOTION    = 14.92330132
ECCENTRICITY   = .00114204
INCLINATION    = 97.7367
RA_OF_ASC_NODE = 261.9592
ARG_OF_PERICENTER = 321.6088
MEAN_ANOMALY   = 38.4318

EPHEMERIS_TYPE = 0
CLASSIFICATION_TYPE = U
NORAD_CAT_ID   = 66657
ELEMENT_SET_NO = 999
REV_AT_EPOCH   = 58
BSTAR          = .36474279E-3
MEAN_MOTION_DOT = .3676E-4
MEAN_MOTION_DDOT = 0

CCSDS_OMM_VERS = 2.0
CREATION_DATE  = 
ORIGINATOR     = 

OBJECT_NAME    = 2025-274J
OBJECT_ID      = 2025-274J
CENTER_NAME    = EARTH
REF_FRAME      = TEME
TIME_SYSTEM    = UTC
MEAN_ELEMENT_THEORY = SGP/SGP4

EPOCH          = 2025-11-30T12:59:12.527808
MEAN_MOTION    = 14.92505907
ECCENTRICITY   = .00120213
INCLINATION    = 97.7368
RA_OF_ASC_NODE = 261.9598
ARG_OF_PERICENTER = 324.2324
MEAN_ANOMALY   = 35.8088

EPHEMERIS_TYPE = 0
CLASSIFICATION_TYPE = U
NORAD_CAT_ID   = 66658
ELEMENT_SET_NO = 999
REV_AT_EPOCH   = 58
BSTAR          = .32396178E-3
MEAN_MOTION_DOT = .3274E-4
MEAN_MOTION_DDOT = 0

CCSDS_OMM_VERS = 2.0
CREATION_DATE  = 
ORIGINATOR     = 

OBJECT_NAME    = 2025-274K
OBJECT_ID      = 2025-274K
CENTER_NAME    = EARTH
REF_FRAME      = TEME
TIME_SYSTEM    = UTC
MEAN_ELEMENT_THEORY = SGP/SGP4

EPOCH          = 2025-11-30T12:58:31.027296
MEAN_MOTION    = 14.92692356
ECCENTRICITY   = .00127693
INCLINATION    = 97.7370
RA_OF_ASC_NODE = 261.9604
ARG_OF_PERICENTER = 325.1446
MEAN_ANOMALY   = 34.8936

EPHEMERIS_TYPE = 0
CLASSIFICATION_TYPE = U
NORAD_CAT_ID   = 66659
ELEMENT_SET_NO = 999
REV_AT_EPOCH   = 58
BSTAR          = .34274795E-3
MEAN_MOTION_DOT = .3484E-4
MEAN_MOTION_DDOT = 0

CCSDS_OMM_VERS = 2.0
CREATION_DATE  = 
ORIGINATOR     = 

OBJECT_NAME    = 2025-274L
OBJECT_ID      = 2025-274L
CENTER_NAME    = EARTH
REF_FRAME      = TEME
TIME_SYSTEM    = UTC
MEAN_ELEMENT_THEORY = SGP/SGP4

EPOCH          = 2025-11-30T12:57:57.805632
MEAN_MOTION    = 14.92842488
ECCENTRICITY   = .00134037
INCLINATION    = 97.7373
RA_OF_ASC_NODE = 261.9612
ARG_OF_PERICENTER = 325.6928
MEAN_ANOMALY   = 34.3425

EPHEMERIS_TYPE = 0
CLASSIFICATION_TYPE = U
NORAD_CAT_ID   = 66660
ELEMENT_SET_NO = 999
REV_AT_EPOCH   = 58
BSTAR          = .37767111E-3
MEAN_MOTION_DOT = .386E-4
MEAN_MOTION_DDOT = 0

CCSDS_OMM_VERS = 2.0
CREATION_DATE  = 
ORIGINATOR     = 

OBJECT_NAME    = 2025-274M
OBJECT_ID      = 2025-274M
CENTER_NAME    = EARTH
REF_FRAME      = TEME
TIME_SYSTEM    = UTC
MEAN_ELEMENT_THEORY = SGP/SGP4

EPOCH          = 2025-11-30T12:57:22.696992
MEAN_MOTION    = 14.92996664
ECCENTRICITY   = .0014068
INCLINATION    = 97.7372
RA_OF_ASC_NODE = 261.9615
ARG_OF_PERICENTER = 326.4207
MEAN_ANOMALY   = 33.6120

EPHEMERIS_TYPE = 0
CLASSIFICATION_TYPE = U
NORAD_CAT_ID   = 66661
ELEMENT_SET_NO = 999
REV_AT_EPOCH   = 58
BSTAR          = .29534678E-3
MEAN_MOTION_DOT = .3018E-4
MEAN_MOTION_DDOT = 0

